NORAD_CAT_ID,OBJECT_NAME,OBJECT_TYPE,EPOCH,MEAN_MOTION,ECCENTRICITY,INCLINATION,RA_OF_ASC_NODE,ARG_OF_PERICENTER,MEAN_ANOMALY,BSTAR,MEAN_MOTION_DOT,MEAN_MOTION_DDOT,TLE_LINE0,TLE_LINE1,TLE_LINE2,SEMIMAJOR_AXIS,PERIOD,APOGEE,PERIGEE,DECAYED
52860.0,STARLINK-4191,PAYLOAD,2023-01-19 14:13:26,15.08854419,0.0002416,53.2169,124.6648,81.1775,278.949,0.00047781,7.327e-05,0.0,0 STARLINK-4191,1 52860U 22062AG  23019.59266910  .00007327  00000-0  47781-3 0  9995,2 52860  53.2169 124.6648 0002416  81.1775 278.9490 15.08854419 33057,6917.835999999999,95.437,541.373,538.03,0.0
52860.0,STARLINK-4191,PAYLOAD,2023-01-19 23:45:45,15.08849828,0.0002688,53.2161,122.8815,86.7522,273.3778,0.00063449,9.827e-05,0.0,0 STARLINK-4191,1 52860U 22062AG  23019.99011073  .00009827  00000-0  63449-3 0  9993,2 52860  53.2161 122.8815 0002688  86.7522 273.3778 15.08849828 33604,6917.85,95.437,541.575,537.856,0.0
52860.0,STARLINK-4191,PAYLOAD,2023-01-20 10:53:27,15.08847842,0.0002272,53.2171,120.7994,90.6013,269.5239,0.00057836,8.93e-05,0.0,0 STARLINK-4191,1 52860U 22062AG  23020.45379019  .00008930  00000-0  57836-3 0  9990,2 52860  53.2171 120.7994 0002272  90.6013 269.5239 15.08847842 33678,6917.856,95.437,541.293,538.15,0.0
52860.0,STARLINK-4191,PAYLOAD,2023-01-20 14:04:13,15.08862882,0.0002528999999999,53.2166,120.2046,89.8414,270.2868,0.0011494,0.00018064,0.0,0 STARLINK-4191,1 52860U 22062AG  23020.58626817  .00018064  00000-0  11494-2 0  9993,2 52860  53.2166 120.2046 0002529  89.8414 270.2868 15.08862882 33695,6917.81,95.436,541.425,537.9259999999999,0.0
52860.0,STARLINK-4191,PAYLOAD,2023-01-20 23:36:32,15.08849592,0.0002682,53.2182,118.4216,83.4675,276.6622,0.0012512,0.00019687,0.0,0 STARLINK-4191,1 52860U 22062AG  23020.98371148  .00019687  00000-0  12512-2 0  9995,2 52860  53.2182 118.4216 0002682  83.4675 276.6622 15.08849592 33758,6917.851,95.437,541.571,537.861,0.0
52860.0,STARLINK-4191,PAYLOAD,2023-01-21 10:44:15,15.08834951,0.0002109,53.2168,116.3402,91.5914,268.5319,0.0017638999999999,0.00027892,0.0,0 STARLINK-4191,1 52860U 22062AG  23021.44739613  .00027892  00000-0  17639-2 0  9994,2 52860  53.2168 116.3402 0002109  91.5914 268.5319 15.08834951 33820,6917.896,95.438,541.22,538.302,0.0
52860.0,STARLINK-4191,PAYLOAD,2023-01-21 15:30:24,15.08849629,0.0002165999999999,53.2167,115.4475,90.0233,270.1007,0.003019,0.00048101,0.0,0 STARLINK-4191,1 52860U 22062AG  23021.64611659  .00048101  00000-0  30190-2 0  9998,2 52860  53.2167 115.4475 0002166  90.0233 270.1007 15.08849629 33854,6917.851,95.437,541.214,538.2180000000001,0.0
52860.0,STARLINK-4191,PAYLOAD,2023-01-22 12:10:25,15.08854453,0.0002099,53.2178,111.5799,91.2583,268.865,0.0012215,0.00019213,0.0,0 STARLINK-4191,1 52860U 22062AG  23022.50723608  .00019213  00000-0  12215-2 0  9992,2 52860  53.2178 111.5799 0002099  91.2583 268.8650 15.08854453 33981,6917.835999999999,95.437,541.153,538.249,0.0
52860.0,STARLINK-4191,PAYLOAD,2023-01-23 05:39:40,15.0882227,0.0002633,53.2168,108.3106,93.2066,266.9228,0.00028239,4.207e-05,0.0,0 STARLINK-4191,1 52860U 22062AG  23023.23588863  .00004207  00000-0  28239-3 0  9996,2 52860  53.2168 108.3106 0002633  93.2066 266.9228 15.08822270 34093,6917.935,95.439,541.621,537.9780000000001,0.0
52860.0,STARLINK-4191,PAYLOAD,2023-01-24 05:30:27,15.08879189,0.0002602,53.2169,103.8499,94.4317,265.6973,0.0023461,0.00037289,0.0,0 STARLINK-4191,1 52860U 22062AG  23024.22948904  .00037289  00000-0  23461-2 0  9999,2 52860  53.2169 103.8499 0002602  94.4317 265.6973 15.08879189 34248,6917.761,95.435,541.4259999999999,537.826,0.0
52860.0,STARLINK-4191,PAYLOAD,2023-01-25 05:21:14,15.08863594,0.0002799,53.2168,99.3897,90.3685,269.7627,0.0012985,0.00020452,0.0,0 STARLINK-4191,1 52860U 22062AG  23025.22307918  .00020452  00000-0  12985-2 0  9997,2 52860  53.2168  99.3897 0002799  90.3685 269.7627 15.08863594 34398,6917.808000000001,95.436,541.61,537.737,0.0
52860.0,STARLINK-4191,PAYLOAD,2023-01-25 11:42:46,15.08841988,0.0002516,53.2168,98.1999,102.2102,257.9172,0.0017134,0.00027088,0.0,0 STARLINK-4191,1 52860U 22062AG  23025.48804113  .00027088  00000-0  17134-2 0  9997,2 52860  53.2168  98.1999 0002516 102.2102 257.9172 15.08841988 34434,6917.874,95.437,541.48,537.999,0.0
52860.0,STARLINK-4191,PAYLOAD,2023-01-26 08:22:47,15.08847333,0.0002617,53.2172,94.3356,106.4831,253.6449,0.00042292,6.45e-05,0.0,0 STARLINK-4191,1 52860U 22062AG  23026.34915989  .00006450  00000-0  42292-3 0  9991,2 52860  53.2172  94.3356 0002617 106.4831 253.6449 15.08847333 34565,6917.858,95.437,541.533,537.913,0.0
52860.0,STARLINK-4191,PAYLOAD,2023-01-26 09:58:10,15.08849172,0.0002626,53.2169,94.0382,107.0266,253.1014,0.00040316,6.136e-05,0.0,0 STARLINK-4191,1 52860U 22062AG  23026.41539890  .00006136  00000-0  40316-3 0  9998,2 52860  53.2169  94.0382 0002626 107.0266 253.1014 15.08849172 34089,6917.852,95.437,541.534,537.901,0.0
52860.0,STARLINK-4191,PAYLOAD,2023-01-27 05:02:48,15.08835016,0.0002394,53.2174,90.4698,107.8212,252.3042,-5.1285e-05,-1.104e-05,0.0,0 STARLINK-4191,1 52860U 22062AG  23027.21028042 -.00001104  00000-0 -51285-4 0  9999,2 52860  53.2174  90.4698 0002394 107.8212 252.3042 15.08835016 34697,6917.896,95.438,541.4169999999999,538.104,0.0
52860.0,STARLINK-4191,PAYLOAD,2023-01-27 11:24:20,15.08844115,0.0002339,53.2171,89.28,107.3317,252.7931,0.00016274,2.303e-05,0.0,0 STARLINK-4191,1 52860U 22062AG  23027.47523802  .00002303  00000-0  16274-3 0  9999,2 52860  53.2171  89.2800 0002339 107.3317 252.7931 15.08844115 34247,6917.868,95.437,541.351,538.115,0.0
52860.0,STARLINK-4191,PAYLOAD,2023-01-27 20:56:39,15.08845539,0.0002143,53.2172,87.4958,100.3115,259.8118,0.00028031,4.176e-05,0.0,0 STARLINK-4191,1 52860U 22062AG  23027.87267843  .00004176  00000-0  28031-3 0  9997,2 52860  53.2172  87.4958 0002143 100.3115 259.8118 15.08845539 34307,6917.863,95.437,541.211,538.246,0.0
52860.0,STARLINK-4191,PAYLOAD,2023-01-28 04:53:35,15.08835823,0.0002437,53.2172,86.0084,98.3667,261.7602,4.4233e-06,-2.18e-06,0.0,0 STARLINK-4191,1 52860U 22062AG  23028.20388212 -.00000218  00000-0  44233-5 0  9997,2 52860  53.2172  86.0084 0002437  98.3667 261.7602 15.08835823 34840,6917.893,95.438,541.444,538.072,0.0
52860.0,STARLINK-4191,PAYLOAD,2023-01-28 11:15:07,15.08842134,0.0002281,53.2167,84.8189,97.104,263.0211,9.8358e-05,1.278e-05,0.0,0 STARLINK-4191,1 52860U 22062AG  23028.46884064  .00001278  00000-0  98358-4 0  9993,2 52860  53.2167  84.8189 0002281  97.1040 263.0211 15.08842134 34399,6917.874,95.437,541.317,538.161,0.0
52860.0,STARLINK-4191,PAYLOAD,2023-01-28 20:47:26,15.08838445,0.0002206,53.2166,83.0339,93.0011,267.1234,7.2135e-05,8.6e-06,0.0,0 STARLINK-4191,1 52860U 22062AG  23028.86628310  .00000860  00000-0  72135-4 0  9998,2 52860  53.2166  83.0339 0002206  93.0011 267.1234 15.08838445 34453,6917.885,95.438,541.276,538.224,0.0
52860.0,STARLINK-4191,PAYLOAD,2023-01-29 11:05:55,15.08840209,0.0002133,53.2174,80.3591,92.225,267.8986,0.00013289,1.827e-05,0.0,0 STARLINK-4191,1 52860U 22062AG  23029.46244454  .00001827  00000-0  13289-3 0  9996,2 52860  53.2174  80.3591 0002133  92.2250 267.8986 15.08840209 35034,6917.88,95.438,541.22,538.269,0.0
52860.0,STARLINK-4191,PAYLOAD,2023-01-29 20:38:14,15.08841504,0.0002279,53.2172,78.5752,90.4821,269.6432,0.00012407,1.687e-05,0.0,0 STARLINK-4191,1 52860U 22062AG  23029.85988480  .00001687  00000-0  12407-3 0  9998,2 52860  53.2172  78.5752 0002279  90.4821 269.6432 15.08841504 34602,6917.876,95.437,541.317,538.164,0.0
52860.0,STARLINK-4191,PAYLOAD,2023-01-30 12:32:05,15.08846281,0.0002107,53.2167,75.6005,91.713,268.4103,0.00019518,2.82e-05,0.0,0 STARLINK-4191,1 52860U 22062AG  23030.52228170  .00002820  00000-0  19518-3 0  9997,2 52860  53.2167  75.6005 0002107  91.7130 268.4103 15.08846281 35196,6917.861,95.437,541.184,538.269,0.0
52860.0,STARLINK-4191,PAYLOAD,2023-01-30 20:29:01,15.08839282,0.0002305,53.2187,74.1108,92.3877,267.7379,8.333e-05,1.038e-05,0.0,0 STARLINK-4191,1 52860U 22062AG  23030.85348533  .00001038  00000-0  83330-4 0  9993,2 52860  53.2187  74.1108 0002305  92.3877 267.7379 15.08839282 35247,6917.883,95.438,541.342,538.153,0.0
52860.0,STARLINK-4191,PAYLOAD,2023-01-31 12:22:52,15.0884386,0.0002178,53.2178,71.1363,114.0998,246.0222,5.1724e-05,5.35e-06,0.0,0 STARLINK-4191,1 52860U 22062AG  23031.51588266  .00000535  00000-0  51724-4 0  9999,2 52860  53.2178  71.1363 0002178 114.0998 246.0222 15.08843860 34851,6917.869,95.437,541.24,538.227,0.0
52860.0,STARLINK-4191,PAYLOAD,2023-02-01 05:52:06,15.08845442,0.0002113,53.2166,67.8679,96.083,264.0403,0.00010014,1.306e-05,0.0,0 STARLINK-4191,1 52860U 22062AG  23032.24452135  .00001306  00000-0  10014-3 0  9998,2 52860  53.2166  67.8679 0002113  96.0830 264.0403 15.08845442 35459,6917.864,95.437,541.19,538.267,0.0
52860.0,STARLINK-4191,PAYLOAD,2023-02-01 09:02:52,15.08848512,0.0002136,53.2165,67.2724,100.8554,259.2679,0.00014001,1.941e-05,0.0,0 STARLINK-4191,1 52860U 22062AG  23032.37699997  .00001941  00000-0  14001-3 0  9996,2 52860  53.2165  67.2724 0002136 100.8554 259.2679 15.08848512 34984,6917.854,95.437,541.197,538.242,0.0
52860.0,STARLINK-4191,PAYLOAD,2023-02-02 02:32:07,15.08837799,0.0002063,53.2161,64.0016,99.0785,261.0441,5.5426e-05,5.94e-06,0.0,0 STARLINK-4191,1 52860U 22062AG  23033.10564569  .00000594  00000-0  55426-4 0  9994,2 52860  53.2161  64.0016 0002063  99.0785 261.0441 15.08837799 35583,6917.887,95.438,541.179,538.325,0.0
52860.0,STARLINK-4191,PAYLOAD,2023-02-02 08:53:40,15.08839346,0.0002004,53.2177,62.8128,101.2324,258.8894,1.3045e-05,-8.1e-07,0.0,0 STARLINK-4191,1 52860U 22062AG  23033.37060462 -.00000081  00000-0  13045-4 0  9999,2 52860  53.2177  62.8128 0002004 101.2324 258.8894 15.08839346 35137,6917.882,95.438,541.134,538.361,0.0
52860.0,STARLINK-4191,PAYLOAD,2023-02-03 05:33:41,15.08840249,0.0002111,53.2175,58.9471,103.6475,256.4752,4.1404e-06,-2.22e-06,0.0,0 STARLINK-4191,1 52860U 22062AG  23034.23172533 -.00000222  00000-0  41404-5 0  9996,2 52860  53.2175  58.9471 0002111 103.6475 256.4752 15.08840249 35753,6917.88,95.438,541.205,538.284,0.0
